CCSDS_OMM_VERS,COMMENT,CREATION_DATE,ORIGINATOR,OBJECT_NAME,OBJECT_ID,CENTER_NAME,REF_FRAME,TIME_SYSTEM,MEAN_ELEMENT_THEORY,EPOCH,MEAN_MOTION,ECCENTRICITY,INCLINATION,RA_OF_ASC_NODE,ARG_OF_PERICENTER,MEAN_ANOMALY,EPHEMERIS_TYPE,CLASSIFICATION_TYPE,NORAD_CAT_ID,ELEMENT_SET_NO,REV_AT_EPOCH,BSTAR,MEAN_MOTION_DOT,MEAN_MOTION_DDOT,SEMIMAJOR_AXIS,PERIOD,APOAPSIS,PERIAPSIS,OBJECT_TYPE,RCS_SIZE,COUNTRY_CODE,LAUNCH_DATE,SITE,DECAY_DATE,FILE,GP_ID,TLE_LINE0,TLE_LINE1,TLE_LINE2,NORAD_KEY
3.0,GENERATED VIA SPACE-TRACK.ORG API,2026-05-06T14:56:52,18 SPCS,DIRECTV 7S,2004-016A,EARTH,TEME,UTC,SGP4,2026-05-06T09:22:39.438336,0.98917043,0.0003513,5.0244,75.4403,71.7642,146.4513,0,U,28238,999,8038,0.00000000000000,-0.00000095,0.0000000000000,42548.843,1455.765,36185.656,36155.761,PAYLOAD,LARGE,US,2004-05-04,SEAL,,5177630,322308869,0 DIRECTV 7S,1 28238U 04016A   26126.39073424 -.00000095  00000-0  00000+0 0  9997,2 28238   5.0244  75.4403 0003513  71.7642 146.4513  0.98917043 80386,28238
3.0,GENERATED VIA SPACE-TRACK.ORG API,2026-05-06T14:46:56,18 SPCS,LUCH 5V,2014-023A,EARTH,TEME,UTC,SGP4,2026-05-06T11:28:37.610112,1.0026938,0.000288,5.0319,70.1561,355.415,65.6564,0,U,39727,999,4394,0.00000000000000,-0.00000260,0.0000000000000,42165.406,1436.131,35799.415,35775.128,PAYLOAD,LARGE,CIS,2014-04-28,TTMTR,,5177143,322297640,0 LUCH 5V,1 39727U 14023A   26126.47821308 -.00000260  00000-0  00000+0 0  9996,2 39727   5.0319  70.1561 0002880 355.4150  65.6564  1.00269380 43940,39727
3.0,GENERATED VIA SPACE-TRACK.ORG API,2026-05-06T14:46:56,18 SPCS,SKYTERRA 1,2010-061A,EARTH,TEME,UTC,SGP4,2026-05-06T09:14:10.252032,1.00272764,0.0003269,5.0373,50.8779,10.9213,199.6581,0,U,37218,999,5677,0.00000000000000,-0.00000110,0.0000000000000,42164.458,1436.083,35800.106,35772.539,PAYLOAD,LARGE,US,2010-11-14,TTMTR,,5177110,322296684,0 SKYTERRA 1,1 37218U 10061A   26126.38484088 -.00000110  00000-0  00000+0 0  9991,2 37218   5.0373  50.8779 0003269  10.9213 199.6581  1.00272764 56776,37218
3.0,GENERATED VIA SPACE-TRACK.ORG API,2026-05-06T14:56:52,18 SPCS,INMARSAT 4-F2,2005-044A,EARTH,TEME,UTC,SGP4,2026-05-06T12:04:05.801952,1.00273278,0.0002998,5.0416,43.7468,6.5817,138.5496,0,U,28899,999,7510,0.00000000000000,-0.00000252,0.0000000000000,42164.313,1436.076,35798.819,35773.538,PAYLOAD,LARGE,IM,2005-11-08,SEAL,,5177641,322309513,0 INMARSAT 4-F2,1 28899U 05044A   26126.50284493 -.00000252  00000-0  00000+0 0  9990,2 28899   5.0416  43.7468 0002998   6.5817 138.5496  1.00273278 75100,28899
3.0,GENERATED VIA SPACE-TRACK.ORG API,2026-05-06T14:46:56,18 SPCS,NATO 3A,1976-035A,EARTH,TEME,UTC,SGP4,2026-05-06T12:58:17.236128,0.99852975,0.0025273,5.0724,298.5262,328.1027,301.7878,0,U,8808,999,74685,0.00000000000000,-0.00000274,0.0000000000000,42282.55,1442.12,36011.275,35797.554,PAYLOAD,LARGE,NATO,1976-04-22,AFETR,,5177174,322298519,0 NATO 3A,1  8808U 76035A   26126.54047727 -.00000274  00000-0  00000+0 0  9991,2  8808   5.0724 298.5262 0025273 328.1027 301.7878  0.99852975746858,8808
3.0,GENERATED VIA SPACE-TRACK.ORG API,2026-05-06T15:06:46,18 SPCS,ANIK F1,2000-076A,EARTH,TEME,UTC,SGP4,2026-05-06T12:46:06.260160,0.98956777,0.0006883,5.0901,75.3034,212.0838,8.0553,0,U,26624,999,4265,0.00000000000000,0.00000074,0.0000000000000,42537.453,1455.181,36188.596,36130.039,PAYLOAD,LARGE,CA,2000-11-21,FRGUI,,5177722,322311272,0 ANIK F1,1 26624U 00076A   26126.53201690  .00000074  00000-0  00000+0 0  9996,2 26624   5.0901  75.3034 0006883 212.0838   8.0553  0.98956777 42654,26624
3.0,GENERATED VIA SPACE-TRACK.ORG API,2026-05-06T14:46:56,18 SPCS,IRNSS 1G,2016-027A,EARTH,TEME,UTC,SGP4,2026-05-06T08:37:19.574976,1.00271215,0.0006084,5.0939,98.4502,348.1978,36.5809,0,U,41469,999,3676,0.00000000000000,-0.00000324,0.0000000000000,42164.892,1436.105,35812.41,35761.104,PAYLOAD,LARGE,IND,2016-04-28,SRI,,5177173,322298012,0 IRNSS 1G,1 41469U 16027A   26126.35925434 -.00000324  00000-0  00000+0 0  9991,2 41469   5.0939  98.4502 0006084 348.1978  36.5809  1.00271215 36760,41469
3.0,GENERATED VIA SPACE-TRACK.ORG API,2026-05-06T14:56:52,18 SPCS,INMARSAT 4-F1,2005-009A,EARTH,TEME,UTC,SGP4,2026-05-06T13:22:14.805120,1.00272319,0.0003126,5.1131,42.6791,5.6848,194.7451,0,U,28628,999,7725,0.00000000000000,0.00000041,0.0000000000000,42164.582,1436.089,35799.628,35773.267,PAYLOAD,LARGE,IM,2005-03-11,AFETR,,5177637,322309455,0 INMARSAT 4-F1,1 28628U 05009A   26126.55711580  .00000041  00000-0  00000+0 0  9993,2 28628   5.1131  42.6791 0003126   5.6848 194.7451  1.00272319 77258,28628
3.0,GENERATED VIA SPACE-TRACK.ORG API,2026-05-06T14:56:52,18 SPCS,AMC-4 (GE-4),1999-060A,EARTH,TEME,UTC,SGP4,2026-05-06T13:43:23.371392,0.99130944,0.0001364,5.148,74.3536,248.0434,180.4583,0,U,25954,999,4300,0.00000000000000,0.00000076,0.0000000000000,42487.614,1452.624,36115.275,36103.684,PAYLOAD,LARGE,SES,1999-11-13,FRGUI,,5177577,322307642,0 AMC-4 (GE-4),1 25954U 99060A   26126.57179828  .00000076  00000-0  00000+0 0  9995,2 25954   5.1480  74.3536 0001364 248.0434 180.4583  0.99130944 43007,25954
3.0,GENERATED VIA SPACE-TRACK.ORG API,2026-05-06T15:06:46,18 SPCS,SKYNET 5B,2007-056B,EARTH,TEME,UTC,SGP4,2026-05-06T11:32:56.752224,1.00273821,0.0003846,5.1484,73.9863,324.9473,23.7298,0,U,32294,999,6777,0.00000000000000,0.00000149,0.0000000000000,42164.161,1436.068,35802.243,35769.81,PAYLOAD,LARGE,UK,2007-11-14,FRGUI,,5177787,322312129,0 SKYNET 5B,1 32294U 07056B   26126.48121241  .00000149  00000-0  00000+0 0  9991,2 32294   5.1484  73.9863 0003846 324.9473  23.7298  1.00273821 67775,32294
3.0,GENERATED VIA SPACE-TRACK.ORG API,2026-05-06T14:56:52,18 SPCS,SBIRS GEO 5 (USA 315),2021-042A,EARTH,TEME,UTC,SGP4,2026-05-06T13:11:51.751392,1.00272194,0.0001643,5.1576,328.8069,87.3306,100.0441,0,U,48618,999,1835,0.00000000000000,-0.00000265,0.0000000000000,42164.617,1436.091,35793.41,35779.555,PAYLOAD,LARGE,US,2021-05-18,AFETR,,5177374,322302045,0 SBIRS GEO 5 (USA 315),1 48618U 21042A   26126.54990453 -.00000265  00000-0  00000+0 0  9995,2 48618   5.1576 328.8069 0001643  87.3306 100.0441  1.00272194 18353,48618
3.0,GENERATED VIA SPACE-TRACK.ORG API,2026-05-06T14:46:56,18 SPCS,TERRESTAR 1,2009-035A,EARTH,TEME,UTC,SGP4,2026-05-06T08:02:38.726880,1.00271888,0.0002749,5.1592,48.806,354.2569,190.7548,0,U,35496,999,6171,0.00000000000000,-0.00000048,0.0000000000000,42164.703,1436.095,35798.159,35774.977,PAYLOAD,LARGE,US,2009-07-01,FRGUI,,5177345,322295666,0 TERRESTAR 1,1 35496U 09035A   26126.33517045 -.00000048  00000-0  00000+0 0  9991,2 35496   5.1592  48.8060 0002749 354.2569 190.7548  1.00271888 61717,35496
3.0,GENERATED VIA SPACE-TRACK.ORG API,2026-05-06T10:08:52,18 SPCS,METEOSAT 1,1977-108A,EARTH,TEME,UTC,SGP4,2026-05-06T04:40:32.948256,1.00314736,0.00107093,5.1809,281.6534,95.7553,296.1697,0,U,10489,999,13679,0.00000000000000,0.00000128,0.0000000000000,42152.695,1435.482,35819.703,35729.418,PAYLOAD,LARGE,ESA,1977-11-23,AFETR,,5176958,322261690,0 METEOSAT 1,1 10489U 77108A   26126.19482579  .00000128  00000-0  00000-0 0  9998,2 10489   5.1809 281.6534 0010709  95.7553 296.1697  1.00314736136798,10489
3.0,GENERATED VIA SPACE-TRACK.ORG API,2026-05-06T10:08:52,18 SPCS,GSAT 12,2011-034A,EARTH,TEME,UTC,SGP4,2026-05-06T02:49:34.419072,0.98863275,0.00043388,5.1926,76.5886,182.0018,358.0659,0,U,37746,999,4291,0.00000000000000,-0.00000199,0.0000000000000,42564.269,1456.557,36204.602,36167.666,PAYLOAD,LARGE,IND,2011-07-15,SRI,,5176958,322271131,0 GSAT 12,1 37746U 11034A   26126.11775948 -.00000199  00000-0  00000-0 0  9995,2 37746   5.1926  76.5886 0004339 182.0018 358.0659  0.98863275 42911,37746
3.0,GENERATED VIA SPACE-TRACK.ORG API,2026-05-06T14:56:52,18 SPCS,SKYNET 5A,2007-007B,EARTH,TEME,UTC,SGP4,2026-05-06T11:28:37.603200,1.00269375,0.0004154,5.1967,74.2336,342.1683,75.3097,0,U,30794,999,7028,0.00000000000000,-0.00000262,0.0000000000000,42165.408,1436.131,35804.788,35769.757,PAYLOAD,LARGE,UK,2007-03-11,FRGUI,,5177681,322310076,0 SKYNET 5A,1 30794U 07007B   26126.47821300 -.00000262  00000-0  00000+0 0  9999,2 30794   5.1967  74.2336 0004154 342.1683  75.3097  1.00269375 70280,30794
3.0,GENERATED VIA SPACE-TRACK.ORG API,2026-05-06T14:36:32,18 SPCS,EUTE 28B (EUTE W2M),2008-065B,EARTH,TEME,UTC,SGP4,2026-05-06T11:41:32.859168,0.98762215,0.0003055,5.2237,74.8827,314.1214,122.6979,0,U,33460,999,6338,0.00000000000000,-0.00000115,0.0000000000000,42593.3,1458.047,36228.178,36202.153,PAYLOAD,LARGE,EUTE,2008-12-20,FRGUI,,5176994,322292891,0 EUTE 28B (EUTE W2M),1 33460U 08065B   26126.48718587 -.00000115  00000-0  00000+0 0  9997,2 33460   5.2237  74.8827 0003055 314.1214 122.6979  0.98762215 63388,33460
3.0,GENERATED VIA SPACE-TRACK.ORG API,2026-05-06T14:46:56,18 SPCS,IRNSS 1F,2016-015A,EARTH,TEME,UTC,SGP4,2026-05-06T11:35:04.047072,1.00278897,0.0016771,5.2442,97.7337,191.1587,141.8347,0,U,41384,999,3724,0.00000000000000,0.00000167,0.0000000000000,42162.738,1435.995,35855.314,35713.892,PAYLOAD,,IND,2016-03-10,SRI,,5177172,322297998,0 IRNSS 1F,1 41384U 16015A   26126.48268573  .00000167  00000-0  00000+0 0  9996,2 41384   5.2442  97.7337 0016771 191.1587 141.8347  1.00278897 37245,41384
3.0,GENERATED VIA SPACE-TRACK.ORG API,2026-05-06T10:08:52,18 SPCS,NSS 6,2002-057A,EARTH,TEME,UTC,SGP4,2026-05-06T01:22:05.312352,0.9912393,0.00081733,5.2715,74.912,239.1844,334.0452,0,U,27603,999,8550,0.00000000000000,0.00000074,0.0000000000000,42489.619,1452.727,36146.212,36076.756,PAYLOAD,LARGE,SES,2002-12-17,FRGUI,,5176958,322266269,0 NSS 6,1 27603U 02057A   26126.05700593  .00000074  00000-0  00000-0 0  9999,2 27603   5.2715  74.9120 0008173 239.1844 334.0452  0.99123930 85508,27603
